{"type": "FeatureCollection", "metadata": {"provisional": false, "source": "Regrid Delaware County NY (csvwktgz), owner=Giacci 157.-2-*", "assemblage": {"tax_map": "157.-2", "parcels": 26, "acres": 43.0, "place": "Carriage Hill, Roxbury, NY 12474"}}, "features": [{"type": "Feature", "properties": {"id": "157.-2-1", "label": "Lot #1", "lot_no": 1, "parcelnumb": "157.-2-1", "group": "community", "group_label": "Community", "color": "#6F7545", "acreage": 0.7, "street": "Carriage Hill Rd", "status": "available", "headline": "0.7 acres", "description": "A village-edge parcel envisioned as communal or civic space for the town."}, "geometry": {"type": "Polygon", "coordinates": [[[-74.5591015, 42.2901635], [-74.55913249999999, 42.2902035], [-74.5591585, 42.290245], [-74.559297, 42.290499499999996], [-74.559434, 42.2906505], [-74.559801, 42.290796], [-74.5600225, 42.2904395], [-74.5591135, 42.2900815], [-74.559026, 42.290091499999996], [-74.559066, 42.2901265], [-74.5591015, 42.2901635]]]}}, {"type": "Feature", "properties": {"id": "157.-2-12", "label": "Lot #12", "lot_no": 12, "parcelnumb": "157.-2-12", "group": "homesites", "group_label": "Homesites", "color": "#4C6FA4", "acreage": 2.01, "street": "Carriage Hill Rd", "status": "available", "headline": "2.01 acres", "description": "Build-ready home sites near the village edge, ranging from under an acre up."}, "geometry": {"type": "Polygon", "coordinates": [[[-74.5592805, 42.290715], [-74.559135, 42.2905545], [-74.55899749999999, 42.290299999999995], [-74.558972, 42.290259999999996], [-74.55894049999999, 42.290223], [-74.5589025, 42.290189], [-74.5588595, 42.2901585], [-74.55881149999999, 42.2901325], [-74.5587595, 42.290110999999996], [-74.5584195, 42.2899895], [-74.557462, 42.291351999999996], [-74.55752, 42.2913755], [-74.5577325, 42.291463], [-74.5582115, 42.29083], [-74.558551, 42.290963999999995], [-74.55870449999999, 42.290788], [-74.5589005, 42.2905625], [-74.5592805, 42.290715]]]}}, {"type": "Feature", "properties": {"id": "157.-2-13", "label": "Lot #13", "lot_no": 13, "parcelnumb": "157.-2-13", "group": "homesites", "group_label": "Homesites", "color": "#4C6FA4", "acreage": 2.29, "street": "Carriage Hill Rd", "status": "available", "headline": "2.29 acres", "description": "Build-ready home sites near the village edge, ranging from under an acre up."}, "geometry": {"type": "Polygon", "coordinates": [[[-74.557462, 42.291351999999996], [-74.5584195, 42.2899895], [-74.55781999999999, 42.2897755], [-74.55742649999999, 42.290335], [-74.5571185, 42.290773], [-74.55687999999999, 42.2911125], [-74.557462, 42.291351999999996]]]}}, {"type": "Feature", "properties": {"id": "157.-2-15", "label": "Lot #15", "lot_no": 15, "parcelnumb": "157.-2-15", "group": "homesites", "group_label": "Homesites", "color": "#4C6FA4", "acreage": 1.06, "street": "Crest Dr", "status": "available", "headline": "1.06 acres", "description": "Build-ready home sites near the village edge, ranging from under an acre up."}, "geometry": {"type": "Polygon", "coordinates": [[[-74.5571185, 42.290773], [-74.55742649999999, 42.290335], [-74.55669499999999, 42.289864], [-74.55631699999999, 42.290164999999995], [-74.5571185, 42.290773]]]}}, {"type": "Feature", "properties": {"id": "157.-2-16", "label": "Lot #16", "lot_no": 16, "parcelnumb": "157.-2-16", "group": "homesites", "group_label": "Homesites", "color": "#4C6FA4", "acreage": 1.16, "street": "Crest Dr", "status": "available", "headline": "1.16 acres", "description": "Build-ready home sites near the village edge, ranging from under an acre up."}, "geometry": {"type": "Polygon", "coordinates": [[[-74.5571185, 42.290773], [-74.55631699999999, 42.290164999999995], [-74.5559385, 42.290465999999995], [-74.556589, 42.290993], [-74.55687999999999, 42.2911125], [-74.5571185, 42.290773]]]}}, {"type": "Feature", "properties": {"id": "157.-2-23", "label": "Lot #23", "lot_no": 23, "parcelnumb": "157.-2-23", "group": "homesites", "group_label": "Homesites", "color": "#4C6FA4", "acreage": 0.75, "street": "Crest Dr", "status": "available", "headline": "0.75 acres", "description": "Build-ready home sites near the village edge, ranging from under an acre up."}, "geometry": {"type": "Polygon", "coordinates": [[[-74.55740999999999, 42.2887005], [-74.55741499999999, 42.2886905], [-74.557648, 42.288304], [-74.557039, 42.288011], [-74.55673999999999, 42.288394], [-74.556739, 42.2883955], [-74.55740999999999, 42.2887005]]]}}, {"type": "Feature", "properties": {"id": "157.-2-24", "label": "Lot #24", "lot_no": 24, "parcelnumb": "157.-2-24", "group": "homesites", "group_label": "Homesites", "color": "#4C6FA4", "acreage": 0.76, "street": "Crest Dr", "status": "available", "headline": "0.76 acres", "description": "Build-ready home sites near the village edge, ranging from under an acre up."}, "geometry": {"type": "Polygon", "coordinates": [[[-74.5576525, 42.288295999999995], [-74.55797299999999, 42.287898999999996], [-74.5573465, 42.287617], [-74.557039, 42.288011], [-74.557648, 42.288304], [-74.5576525, 42.288295999999995]]]}}, {"type": "Feature", "properties": {"id": "157.-2-26", "label": "Lot #26", "lot_no": 26, "parcelnumb": "157.-2-26", "group": "homesites", "group_label": "Homesites", "color": "#4C6FA4", "acreage": 0.75, "street": "Crest Dr", "status": "available", "headline": "0.75 acres", "description": "Build-ready home sites near the village edge, ranging from under an acre up."}, "geometry": {"type": "Polygon", "coordinates": [[[-74.5579755, 42.287895999999996], [-74.558262, 42.2875095], [-74.558269, 42.287501], [-74.55765199999999, 42.287217999999996], [-74.5574115, 42.2875325], [-74.55735, 42.287613], [-74.5573465, 42.287617], [-74.55797299999999, 42.287898999999996], [-74.5579755, 42.287895999999996]]]}}, {"type": "Feature", "properties": {"id": "157.-2-28", "label": "Lot #28", "lot_no": 28, "parcelnumb": "157.-2-28", "group": "homesites", "group_label": "Homesites", "color": "#4C6FA4", "acreage": 1.14, "street": "Crest Dr", "status": "available", "headline": "1.14 acres", "description": "Build-ready home sites near the village edge, ranging from under an acre up."}, "geometry": {"type": "Polygon", "coordinates": [[[-74.5589215, 42.2862945], [-74.558883, 42.2862115], [-74.558847, 42.2861325], [-74.558824, 42.286066], [-74.558819, 42.2860265], [-74.55825349999999, 42.286432], [-74.5582525, 42.2864335], [-74.5580315, 42.286722499999996], [-74.558663, 42.2869975], [-74.5590125, 42.286561], [-74.55902999999999, 42.2865165], [-74.559006, 42.2864425], [-74.5589665, 42.2863815], [-74.5589215, 42.2862945]]]}}, {"type": "Feature", "properties": {"id": "157.-2-43", "label": "Lot #43", "lot_no": 43, "parcelnumb": "157.-2-43", "group": "homesites", "group_label": "Homesites", "color": "#4C6FA4", "acreage": 0.83, "street": "Carriage Hill Rd", "status": "available", "headline": "0.83 acres", "description": "Build-ready home sites near the village edge, ranging from under an acre up."}, "geometry": {"type": "Polygon", "coordinates": [[[-74.560215, 42.2883105], [-74.5603225, 42.2881455], [-74.560327, 42.288138], [-74.5603575, 42.288087499999996], [-74.5603855, 42.288041], [-74.5597315, 42.287794999999996], [-74.55944, 42.288211], [-74.55942499999999, 42.2882325], [-74.5601015, 42.2884835], [-74.560159, 42.2883965], [-74.560161, 42.288394], [-74.560215, 42.2883105]]]}}, {"type": "Feature", "properties": {"id": "157.-2-44", "label": "Lot #44", "lot_no": 44, "parcelnumb": "157.-2-44", "group": "homesites", "group_label": "Homesites", "color": "#4C6FA4", "acreage": 0.71, "street": "Carriage Hill Rd", "status": "available", "headline": "0.71 acres", "description": "Build-ready home sites near the village edge, ranging from under an acre up."}, "geometry": {"type": "Polygon", "coordinates": [[[-74.559935, 42.2887895], [-74.55990899999999, 42.288774499999995], [-74.560035, 42.2885845], [-74.5601015, 42.2884835], [-74.55942499999999, 42.2882325], [-74.5591735, 42.288591499999995], [-74.559884, 42.288866999999996], [-74.55988599999999, 42.288864], [-74.559935, 42.2887895]]]}}, {"type": "Feature", "properties": {"id": "157.-2-45", "label": "Lot #45", "lot_no": 45, "parcelnumb": "157.-2-45", "group": "homesites", "group_label": "Homesites", "color": "#4C6FA4", "acreage": 0.7, "street": "Carriage Hill Rd", "status": "available", "headline": "0.7 acres", "description": "Build-ready home sites near the village edge, ranging from under an acre up."}, "geometry": {"type": "Polygon", "coordinates": [[[-74.5591735, 42.288591499999995], [-74.5591565, 42.288616], [-74.558942, 42.288943499999995], [-74.559664, 42.289214], [-74.55967249999999, 42.2891885], [-74.55970049999999, 42.289145999999995], [-74.5597725, 42.289035999999996], [-74.559884, 42.288866999999996], [-74.5591735, 42.288591499999995]]]}}, {"type": "Feature", "properties": {"id": "157.-2-46", "label": "Lot #46", "lot_no": 46, "parcelnumb": "157.-2-46", "group": "homesites", "group_label": "Homesites", "color": "#4C6FA4", "acreage": 0.88, "street": "Carriage Hill Rd", "status": "available", "headline": "0.88 acres", "description": "Build-ready home sites near the village edge, ranging from under an acre up."}, "geometry": {"type": "Polygon", "coordinates": [[[-74.55868699999999, 42.2893335], [-74.5594375, 42.289663499999996], [-74.55959949999999, 42.289417], [-74.559618, 42.289359], [-74.559664, 42.289214], [-74.558942, 42.288943499999995], [-74.5586895, 42.2893295], [-74.55868699999999, 42.2893335]]]}}, {"type": "Feature", "properties": {"id": "157.-2-34", "label": "Lot #34", "lot_no": 34, "parcelnumb": "157.-2-34", "group": "str", "group_label": "Short-Term Rental Cluster", "color": "#C07A3E", "acreage": 2.02, "street": "Apple Tree Close Rd", "status": "available", "headline": "2.02 acres", "description": "A wooded, road-served cluster suited to a managed short-term-rental community."}, "geometry": {"type": "Polygon", "coordinates": [[[-74.5573715, 42.284583], [-74.5573435, 42.2846195], [-74.55720199999999, 42.2848055], [-74.5583415, 42.2855515], [-74.55841699999999, 42.2855365], [-74.558491, 42.285531999999996], [-74.5585625, 42.285523], [-74.55863599999999, 42.285526499999996], [-74.55872, 42.285533], [-74.558818, 42.2855445], [-74.5590435, 42.2852635], [-74.557485, 42.2844335], [-74.5573715, 42.284583]]]}}, {"type": "Feature", "properties": {"id": "157.-2-35", "label": "Lot #35", "lot_no": 35, "parcelnumb": "157.-2-35", "group": "str", "group_label": "Short-Term Rental Cluster", "color": "#C07A3E", "acreage": 1.78, "street": "Apple Tree Close Rd", "status": "available", "headline": "1.78 acres", "description": "A wooded, road-served cluster suited to a managed short-term-rental community."}, "geometry": {"type": "Polygon", "coordinates": [[[-74.557485, 42.2844335], [-74.5590435, 42.2852635], [-74.5593485, 42.284884], [-74.5577425, 42.284105499999995], [-74.557485, 42.2844335]]]}}, {"type": "Feature", "properties": {"id": "157.-2-36", "label": "Lot #36", "lot_no": 36, "parcelnumb": "157.-2-36", "group": "str", "group_label": "Short-Term Rental Cluster", "color": "#C07A3E", "acreage": 1.49, "street": "Apple Tree Close Rd", "status": "available", "headline": "1.49 acres", "description": "A wooded, road-served cluster suited to a managed short-term-rental community."}, "geometry": {"type": "Polygon", "coordinates": [[[-74.5593485, 42.284884], [-74.55961649999999, 42.28454], [-74.55943049999999, 42.2844615], [-74.55896849999999, 42.284285], [-74.558472, 42.2840845], [-74.5579375, 42.283823], [-74.5577425, 42.284105499999995], [-74.5593485, 42.284884]]]}}, {"type": "Feature", "properties": {"id": "157.-2-37", "label": "Lot #37", "lot_no": 37, "parcelnumb": "157.-2-37", "group": "str", "group_label": "Short-Term Rental Cluster", "color": "#C07A3E", "acreage": 0.74, "street": "Apple Tree Close Rd", "status": "available", "headline": "0.74 acres", "description": "A wooded, road-served cluster suited to a managed short-term-rental community."}, "geometry": {"type": "Polygon", "coordinates": [[[-74.560513, 42.284921], [-74.5598335, 42.2846325], [-74.5597755, 42.2846075], [-74.55949799999999, 42.2849655], [-74.56025149999999, 42.2852335], [-74.56030849999999, 42.2851655], [-74.560368, 42.285094], [-74.5604385, 42.28501], [-74.560513, 42.284921]]]}}, {"type": "Feature", "properties": {"id": "157.-2-38", "label": "Lot #38", "lot_no": 38, "parcelnumb": "157.-2-38", "group": "str", "group_label": "Short-Term Rental Cluster", "color": "#C07A3E", "acreage": 0.82, "street": "Apple Tree Close Rd", "status": "available", "headline": "0.82 acres", "description": "A wooded, road-served cluster suited to a managed short-term-rental community."}, "geometry": {"type": "Polygon", "coordinates": [[[-74.560239, 42.2852485], [-74.56025149999999, 42.2852335], [-74.55949799999999, 42.2849655], [-74.559209, 42.285337999999996], [-74.5599335, 42.285613], [-74.559963, 42.285576999999996], [-74.5599665, 42.2855735], [-74.560036, 42.285490499999995], [-74.56017349999999, 42.285326], [-74.560239, 42.2852485]]]}}, {"type": "Feature", "properties": {"id": "157.-2-39", "label": "Lot #39", "lot_no": 39, "parcelnumb": "157.-2-39", "group": "str", "group_label": "Short-Term Rental Cluster", "color": "#C07A3E", "acreage": 0.8, "street": "Apple Tree Close Rd", "status": "available", "headline": "0.8 acres", "description": "A wooded, road-served cluster suited to a managed short-term-rental community."}, "geometry": {"type": "Polygon", "coordinates": [[[-74.5599335, 42.285613], [-74.559209, 42.285337999999996], [-74.559021, 42.285580499999995], [-74.559016, 42.2856635], [-74.5590055, 42.285743499999995], [-74.559598, 42.286013], [-74.55973449999999, 42.285849999999996], [-74.559787, 42.2857875], [-74.5598275, 42.285739], [-74.5599335, 42.285613]]]}}, {"type": "Feature", "properties": {"id": "157.-2-19", "label": "Lot #19", "lot_no": 19, "parcelnumb": "157.-2-19", "group": "outdoor", "group_label": "Outdoor Hospitality", "color": "#2E7D5B", "acreage": 3.09, "street": "Crest Dr", "status": "available", "headline": "3.09 acres", "description": "View parcels suited to outdoor hospitality, retreats, and recreation."}, "geometry": {"type": "Polygon", "coordinates": [[[-74.5533535, 42.289459], [-74.553283, 42.289569], [-74.553247, 42.289624499999995], [-74.554401, 42.290459999999996], [-74.5551845, 42.290865], [-74.5556385, 42.290504], [-74.5549735, 42.2900615], [-74.5546375, 42.289869499999995], [-74.553506, 42.2892235], [-74.5533535, 42.289459]]]}}, {"type": "Feature", "properties": {"id": "157.-2-21", "label": "Lot #21", "lot_no": 21, "parcelnumb": "157.-2-21", "group": "outdoor", "group_label": "Outdoor Hospitality", "color": "#2E7D5B", "acreage": 0.75, "street": "Old Paint Mine Rd", "status": "available", "headline": "0.75 acres", "description": "View parcels suited to outdoor hospitality, retreats, and recreation."}, "geometry": {"type": "Polygon", "coordinates": [[[-74.556739, 42.2883955], [-74.55612649999999, 42.2881165], [-74.556116, 42.2881295], [-74.5558525, 42.2884545], [-74.55586, 42.28852], [-74.556473, 42.288799999999995], [-74.556739, 42.2883955]]]}}, {"type": "Feature", "properties": {"id": "157.-2-22", "label": "Lot #22", "lot_no": 22, "parcelnumb": "157.-2-22", "group": "outdoor", "group_label": "Outdoor Hospitality", "color": "#2E7D5B", "acreage": 0.73, "street": "Old Paint Mine Rd", "status": "available", "headline": "0.73 acres", "description": "View parcels suited to outdoor hospitality, retreats, and recreation."}, "geometry": {"type": "Polygon", "coordinates": [[[-74.55673999999999, 42.288394], [-74.557039, 42.288011], [-74.5564425, 42.2877235], [-74.55612649999999, 42.2881165], [-74.556739, 42.2883955], [-74.55673999999999, 42.288394]]]}}, {"type": "Feature", "properties": {"id": "157.-2-30", "label": "Lot #30", "lot_no": 30, "parcelnumb": "157.-2-30", "group": "outdoor", "group_label": "Outdoor Hospitality", "color": "#2E7D5B", "acreage": 1.07, "street": "Old Paint Mine Rd", "status": "available", "headline": "1.07 acres", "description": "View parcels suited to outdoor hospitality, retreats, and recreation."}, "geometry": {"type": "Polygon", "coordinates": [[[-74.5582525, 42.2864335], [-74.5576725, 42.286193999999995], [-74.5576, 42.2862825], [-74.5571865, 42.2867915], [-74.5577835, 42.287046], [-74.5580315, 42.286722499999996], [-74.5582525, 42.2864335]]]}}, {"type": "Feature", "properties": {"id": "157.-2-31", "label": "Lot #31", "lot_no": 31, "parcelnumb": "157.-2-31", "group": "outdoor", "group_label": "Outdoor Hospitality", "color": "#2E7D5B", "acreage": 0.87, "street": "Old Paint Mine Rd", "status": "available", "headline": "0.87 acres", "description": "View parcels suited to outdoor hospitality, retreats, and recreation."}, "geometry": {"type": "Polygon", "coordinates": [[[-74.55765199999999, 42.287217999999996], [-74.5577835, 42.287046], [-74.5571865, 42.2867915], [-74.556815, 42.287257499999996], [-74.5574115, 42.2875325], [-74.55765199999999, 42.287217999999996]]]}}, {"type": "Feature", "properties": {"id": "157.-2-32", "label": "Lot #32", "lot_no": 32, "parcelnumb": "157.-2-32", "group": "outdoor", "group_label": "Outdoor Hospitality", "color": "#2E7D5B", "acreage": 0.87, "street": "Old Paint Mine Rd", "status": "available", "headline": "0.87 acres", "description": "View parcels suited to outdoor hospitality, retreats, and recreation."}, "geometry": {"type": "Polygon", "coordinates": [[[-74.5574115, 42.2875325], [-74.556815, 42.287257499999996], [-74.5566265, 42.2874945], [-74.5564425, 42.2877235], [-74.557039, 42.288011], [-74.5573465, 42.287617], [-74.55735, 42.287613], [-74.5574115, 42.2875325]]]}}, {"type": "Feature", "properties": {"id": "157.-2-33", "label": "Lot #33", "lot_no": 33, "parcelnumb": "157.-2-33", "group": "outdoor", "group_label": "Outdoor Hospitality", "color": "#2E7D5B", "acreage": 14.23, "street": "Old Paint Mine Rd", "status": "available", "headline": "14.23 acres", "description": "View parcels suited to outdoor hospitality, retreats, and recreation."}, "geometry": {"type": "Polygon", "coordinates": [[[-74.5545815, 42.2875075], [-74.554503, 42.287634], [-74.5543155, 42.287938], [-74.554243, 42.288055], [-74.5541145, 42.288263], [-74.554079, 42.2883205], [-74.553837, 42.2887115], [-74.553827, 42.2887275], [-74.5537205, 42.2888915], [-74.553506, 42.2892235], [-74.55565849999999, 42.2885425], [-74.555647, 42.2885035], [-74.555655, 42.2884555], [-74.555672, 42.288409], [-74.555987, 42.288004], [-74.5564965, 42.287372999999995], [-74.55712749999999, 42.286594], [-74.5576425, 42.2859585], [-74.5576885, 42.285903999999995], [-74.557763, 42.285844], [-74.55784899999999, 42.2857765], [-74.5579395, 42.2857115], [-74.55804599999999, 42.285657], [-74.55813549999999, 42.2856155], [-74.558221, 42.285580499999995], [-74.5583335, 42.285553], [-74.5583415, 42.2855515], [-74.55720199999999, 42.2848055], [-74.556878, 42.285169499999995], [-74.556423, 42.2856325], [-74.5561965, 42.2858625], [-74.5559725, 42.2860905], [-74.5558145, 42.286251], [-74.555579, 42.286491], [-74.55529299999999, 42.2867815], [-74.5552355, 42.2868405], [-74.555005, 42.2870755], [-74.5545815, 42.2875075]]]}}]}